NORAD_CAT_ID,OBJECT_NAME,OBJECT_TYPE,EPOCH,MEAN_MOTION,ECCENTRICITY,INCLINATION,RA_OF_ASC_NODE,ARG_OF_PERICENTER,MEAN_ANOMALY,BSTAR,MEAN_MOTION_DOT,MEAN_MOTION_DDOT,TLE_LINE0,TLE_LINE1,TLE_LINE2,SEMIMAJOR_AXIS,PERIOD,APOGEE,PERIGEE,DECAYED
54780.0,STARLINK-5449,PAYLOAD,2024-04-07 13:22:11,15.08828395,0.0001557,53.2185,296.5307,101.0356,259.0811,0.00022057,3.223e-05,0.0,0 STARLINK-5449,1 54780U 22175Y   24098.55708163  .00003223  00000-0  22057-3 0  9998,2 54780  53.2185 296.5307 0001557 101.0356 259.0811 15.08828395 74282,6917.916,95.438,540.858,538.704,0.0
54780.0,STARLINK-5449,PAYLOAD,2024-04-07 19:43:44,15.08837966,0.0001355,53.2166,295.3426,92.0835,268.0313,7.6891e-05,9.36e-06,0.0,0 STARLINK-5449,1 54780U 22175Y   24098.82203901  .00000936  00000-0  76891-4 0  9992,2 54780  53.2166 295.3426 0001355  92.0835 268.0313 15.08837966 74323,6917.887,95.438,540.689,538.814,0.0
54780.0,STARLINK-5449,PAYLOAD,2024-04-08 19:34:31,15.08836232,0.0001459,53.2174,290.8822,92.5911,267.5248,7.1061e-05,8.43e-06,0.0,0 STARLINK-5449,1 54780U 22175Y   24099.81564234  .00000843  00000-0  71061-4 0  9992,2 54780  53.2174 290.8822 0001459  92.5911 267.5248 15.08836232 72310,6917.892,95.438,540.766,538.748,0.0
54780.0,STARLINK-5449,PAYLOAD,2024-04-09 05:06:50,15.08835718,0.0001419,53.2172,289.0982,91.9104,268.2051,4.5346e-05,4.34e-06,0.0,0 STARLINK-5449,1 54780U 22175Y   24100.21308427  .00000434  00000-0  45346-4 0  9992,2 54780  53.2172 289.0982 0001419  91.9104 268.2051 15.08835718 74532,6917.893,95.438,540.74,538.777,0.0
54780.0,STARLINK-5449,PAYLOAD,2024-04-09 19:25:18,15.08836934,0.0001391,53.2159,286.4209,90.6632,269.4519,6.6533e-05,7.71e-06,0.0,0 STARLINK-5449,1 54780U 22175Y   24100.80924429  .00000771  00000-0  66533-4 0  9998,2 54780  53.2159 286.4209 0001391  90.6632 269.4519 15.08836934 74624,6917.89,95.438,540.717,538.792,0.0
54780.0,STARLINK-5449,PAYLOAD,2024-04-10 04:57:36,15.08845147,0.000151,53.2167,284.6377,91.4636,268.653,7.6521e-05,9.3e-06,0.0,0 STARLINK-5449,1 54780U 22175Y   24101.20667765  .00000930  00000-0  76521-4 0  9995,2 54780  53.2167 284.6377 0001510  91.4636 268.6530 15.08845147 72522,6917.865,95.437,540.774,538.685,0.0
54780.0,STARLINK-5449,PAYLOAD,2024-04-10 19:16:06,15.0883207,0.0001233,53.216,281.9612,89.0399,271.0735,2.7133e-05,1.44e-06,0.0,0 STARLINK-5449,1 54780U 22175Y   24101.80284950  .00000144  00000-0  27133-4 0  9994,2 54780  53.2160 281.9612 0001233  89.0399 271.0735 15.08832070 72614,6917.905,95.438,540.623,538.917,0.0
54780.0,STARLINK-5449,PAYLOAD,2024-04-11 04:48:24,15.08841313,0.0001461,53.218,280.1772,87.3874,272.7285,0.00011936,1.612e-05,0.0,0 STARLINK-5449,1 54780U 22175Y   24102.20028281  .00001612  00000-0  11936-3 0  9996,2 54780  53.2180 280.1772 0001461  87.3874 272.7285 15.08841313 72670,6917.876,95.437,540.752,538.731,0.0
54780.0,STARLINK-5449,PAYLOAD,2024-04-11 19:06:53,15.08836166,0.0001666,53.219,277.5017,87.8344,272.2839,1.1834e-05,-1e-06,0.0,0 STARLINK-5449,1 54780U 22175Y   24102.79645091 -.00000100  00000-0  11834-4 0  9994,2 54780  53.2190 277.5017 0001666  87.8344 272.2839 15.08836166 72767,6917.892,95.438,540.91,538.605,0.0
54780.0,STARLINK-5449,PAYLOAD,2024-04-12 11:00:44,15.08836731,0.0001398,53.2175,274.5266,83.6596,276.4555,0.00010307,1.353e-05,0.0,0 STARLINK-5449,1 54780U 22175Y   24103.45884795  .00001353  00000-0  10307-3 0  9997,2 54780  53.2175 274.5266 0001398  83.6596 276.4555 15.08836731 75029,6917.89,95.438,540.723,538.788,0.0
54780.0,STARLINK-5449,PAYLOAD,2024-04-13 10:51:31,15.08850925,0.0001366,53.2174,270.0663,78.0599,282.0547,-4.9851e-05,-1.081e-05,0.0,0 STARLINK-5449,1 54780U 22175Y   24104.45244260 -.00001081  00000-0 -49851-4 0  9992,2 54780  53.2174 270.0663 0001366  78.0599 282.0547 15.08850925 73018,6917.847,95.437,540.657,538.767,0.0
54780.0,STARLINK-5449,PAYLOAD,2024-04-13 17:13:03,15.0884246,0.000142,53.2169,268.8768,75.2069,284.908,8.8213e-05,1.116e-05,0.0,0 STARLINK-5449,1 54780U 22175Y   24104.71740725  .00001116  00000-0  88213-4 0  9990,2 54780  53.2169 268.8768 0001420  75.2069 284.9080 15.08842460 73057,6917.873,95.437,540.72,538.756,0.0
54780.0,STARLINK-5449,PAYLOAD,2024-04-14 17:03:50,15.0884627,0.0001397,53.2164,264.4145,84.8385,275.2766,0.0001132,1.514e-05,0.0,0 STARLINK-5449,1 54780U 22175Y   24105.71100332  .00001514  00000-0  11320-3 0  9991,2 54780  53.2164 264.4145 0001397  84.8385 275.2766 15.08846270 75366,6917.861,95.437,540.693,538.76,0.0
54780.0,STARLINK-5449,PAYLOAD,2024-04-15 10:33:05,15.08844175,0.0001483,53.2165,261.1436,88.4322,271.684,7.5925e-05,9.21e-06,0.0,0 STARLINK-5449,1 54780U 22175Y   24106.43964452  .00000921  00000-0  75925-4 0  9995,2 54780  53.2165 261.1436 0001483  88.4322 271.6840 15.08844175 73319,6917.868,95.437,540.759,538.707,0.0
54780.0,STARLINK-5449,PAYLOAD,2024-04-15 13:43:53,15.08813355,9.69e-05,53.2166,260.5485,73.7442,286.3657,-0.00018709,-3.262e-05,0.0,0 STARLINK-5449,1 54780U 22175Y   24106.57214979 -.00003262  00000-0 -18709-3 0  9991,2 54780  53.2166 260.5485 0000969  73.7442 286.3657 15.08813355 75491,6917.962,95.439,540.497,539.156,0.0
54780.0,STARLINK-5449,PAYLOAD,2024-04-15 20:05:26,15.08810335,7.8e-05,53.2192,259.3618,53.8472,306.2592,-0.0001946,-3.381e-05,0.0,0 STARLINK-5449,1 54780U 22175Y   24106.83711622 -.00003381  00000-0 -19460-3 0  9994,2 54780  53.2192 259.3618 0000780  53.8472 306.2592 15.08810335 73377,6917.971,95.439,540.376,539.296,0.0
54780.0,STARLINK-5449,PAYLOAD,2024-04-16 10:23:53,15.08833529,4.44e-05,53.2179,256.6856,77.6973,282.4069,4.7904e-05,4.75e-06,0.0,0 STARLINK-5449,1 54780U 22175Y   24107.43326008  .00000475  00000-0  47904-4 0  9995,2 54780  53.2179 256.6856 0000444  77.6973 282.4069 15.08833529 73467,6917.9,95.438,540.072,539.458,0.0
54780.0,STARLINK-5449,PAYLOAD,2024-04-16 13:34:39,15.08842402,0.0001388,53.2184,256.0941,41.0922,319.0175,0.00012282,1.667e-05,0.0,0 STARLINK-5449,1 54780U 22175Y   24107.56573636  .00001667  00000-0  12282-3 0  9994,2 54780  53.2184 256.0941 0001388  41.0922 319.0175 15.08842402 75646,6917.873,95.437,540.698,538.778,0.0
54780.0,STARLINK-5449,PAYLOAD,2024-04-16 16:45:24,15.08867204,0.0001301,53.2158,255.4961,90.3323,269.7819,0.00057587,8.896e-05,0.0,0 STARLINK-5449,1 54780U 22175Y   24107.69820390  .00008896  00000-0  57587-3 0  9998,2 54780  53.2158 255.4961 0001301  90.3323 269.7819 15.08867204 73505,6917.797,95.436,540.562,538.762,0.0
54780.0,STARLINK-5449,PAYLOAD,2024-04-17 10:14:39,15.08847774,8.75e-05,53.2155,252.2199,45.3124,314.7939,0.00057355,8.854e-05,0.0,0 STARLINK-5449,1 54780U 22175Y   24108.42684677  .00008854  00000-0  57355-3 0  9993,2 54780  53.2155 252.2199 0000875  45.3124 314.7939 15.08847774 73610,6917.857,95.437,540.327,539.116,0.0
54780.0,STARLINK-5449,PAYLOAD,2024-04-17 13:25:26,15.08819164,0.0001343,53.2157,251.628,90.4346,269.68,0.00010785,1.428e-05,0.0,0 STARLINK-5449,1 54780U 22175Y   24108.55933947  .00001428  00000-0  10785-3 0  9990,2 54780  53.2157 251.6280 0001343  90.4346 269.6800 15.08819164 75792,6917.944,95.439,540.738,538.88,0.0
54780.0,STARLINK-5449,PAYLOAD,2024-04-17 15:00:49,15.08822031,0.0001423,53.2161,251.3304,95.3467,264.7687,0.00012196,1.653e-05,0.0,0 STARLINK-5449,1 54780U 22175Y   24108.62557839  .00001653  00000-0  12196-3 0  9998,2 54780  53.2161 251.3304 0001423  95.3467 264.7687 15.08822031 73646,6917.935,95.439,540.785,538.816,0.0
54780.0,STARLINK-5449,PAYLOAD,2024-04-18 14:51:36,15.08845629,0.0001407,53.2151,246.8708,88.9704,271.1449,-0.00024826,-4.237e-05,0.0,0 STARLINK-5449,1 54780U 22175Y   24109.61916866 -.00004237  00000-0 -24826-3 0  9993,2 54780  53.2151 246.8708 0001407  88.9704 271.1449 15.08845629 75958,6917.863,95.437,540.702,538.755,0.0
54780.0,STARLINK-5449,PAYLOAD,2024-04-18 16:26:59,15.08840569,0.0001448,53.215,246.5737,88.5426,271.5732,-0.00018685,-3.261e-05,0.0,0 STARLINK-5449,1 54780U 22175Y   24109.68540926 -.00003261  00000-0 -18685-3 0  9992,2 54780  53.2150 246.5737 0001448  88.5426 271.5732 15.08840569 73807,6917.879,95.438,540.745,538.742,0.0
54780.0,STARLINK-5449,PAYLOAD,2024-04-19 13:07:00,15.08838448,0.0001634,53.2156,242.7057,96.5104,263.6074,0.00028605,4.267e-05,0.0,0 STARLINK-5449,1 54780U 22175Y   24110.54653575  .00004267  00000-0  28605-3 0  9992,2 54780  53.2156 242.7057 0001634  96.5104 263.6074 15.08838448 76093,6917.885,95.438,540.881,538.62,0.0
54780.0,STARLINK-5449,PAYLOAD,2024-04-19 16:17:46,15.08846314,0.0001649,53.2154,242.1115,85.9268,274.1913,0.00042767,6.526e-05,0.0,0 STARLINK-5449,1 54780U 22175Y   24110.67901417  .00006526  00000-0  42767-3 0  9992,2 54780  53.2154 242.1115 0001649  85.9268 274.1913 15.08846314 76112,6917.861,95.437,540.867,538.585,0.0
54780.0,STARLINK-5449,PAYLOAD,2024-04-20 12:57:46,15.08854676,0.0001584,53.215,238.2478,91.0005,269.1169,0.00023639,3.478e-05,0.0,0 STARLINK-5449,1 54780U 22175Y   24111.54012674  .00003478  00000-0  23639-3 0  9997,2 54780  53.2150 238.2478 0001584  91.0005 269.1169 15.08854676 76242,6917.836,95.437,540.796,538.605,0.0
54780.0,STARLINK-5449,PAYLOAD,2024-04-20 16:08:34,15.08802059,0.0001744,53.216,237.6563,80.0269,280.0919,-0.0008752,-0.00014175,0.0,0 STARLINK-5449,1 54780U 22175Y   24111.67262578 -.00014175  00000-0 -87520-3 0  9998,2 54780  53.2160 237.6563 0001744  80.0269 280.0919 15.08802059 74105,6917.996,95.44,541.068,538.655,0.0
54780.0,STARLINK-5449,PAYLOAD,2024-04-21 14:23:59,15.08838995,0.0002002,53.2162,233.4919,78.6234,281.4983,0.00067539,0.00010477,0.0,0 STARLINK-5449,1 54780U 22175Y   24112.59998915  .00010477  00000-0  67539-3 0  9998,2 54780  53.2162 233.4919 0002002  78.6234 281.4983 15.08838995 76408,6917.883,95.438,541.133,538.364,0.0
54780.0,STARLINK-5449,PAYLOAD,2024-04-21 17:34:44,15.08852672,0.0001871,53.2175,232.89,104.6522,255.4678,0.0010778,0.00016913,0.0,0 STARLINK-5449,1 54780U 22175Y   24112.73246511  .00016913  00000-0  10778-2 0  9995,2 54780  53.2175 232.8900 0001871 104.6522 255.4678 15.08852672 74260,6917.842,95.437,541.001,538.412,0.0
